IRIDIUM 119             
1 42959U 17061E   23238.66901244  .00000292  00000+0  97171-4 0  9995
2 42959  86.3924  93.8507 0002323  90.8305 269.3157 14.34219052307824
IRIDIUM 107             
1 42960U 17061F   23238.68804145  .00000295  00000+0  98257-4 0  9990
2 42960  86.3926  93.8577 0002361  84.5789 275.5676 14.34218141307837
IRIDIUM 132             
1 42961U 17061G   23238.69438446  .00000223  00000+0  72669-4 0  9999
2 42961  86.3926  93.8413 0002349  88.2570 271.8895 14.34217606307839
IRIDIUM 136             
1 42962U 17061H   23238.65632855  .00000298  00000+0  99176-4 0  9990
2 42962  86.3925  93.8595 0002054  94.2649 265.8781 14.34219275307849
IRIDIUM 139             
1 42963U 17061J   23238.66267185  .00000290  00000+0  96415-4 0  9997
2 42963  86.3926  93.9026 0002362  87.2223 272.9243 14.34217270307859
IRIDIUM 125             
1 42964U 17061K   23238.64998689  .00000294  00000+0  97840-4 0  9993
2 42964  86.3928  93.9501 0002395  89.3805 270.7665 14.34217359307868
IRIDIUM 135             
1 43070U 17083A   23238.83342141  .00000349  00000+0  11761-3 0  9991
2 43070  86.3978  30.5282 0002082  82.3940 277.7492 14.34217626297186
IRIDIUM 138             
1 43071U 17083B   23238.85879061  .00000387  00000+0  13101-3 0  9992
2 43071  86.3966  30.2716 0002277  94.0257 266.1199 14.34218815297176
